[{"OBJECT_NAME":"STARLINK-3135","OBJECT_ID":"2021-104S","EPOCH":"2026-03-09T18:08:46.059360","MEAN_MOTION":15.08839991,"ECCENTRICITY":0.00015117,"INCLINATION":53.2173,"RA_OF_ASC_NODE":228.823,"ARG_OF_PERICENTER":94.7788,"MEAN_ANOMALY":265.3377,"EPHEMERIS_TYPE":0,"CLASSIFICATION_TYPE":"U","NORAD_CAT_ID":49424,"ELEMENT_SET_NO":999,"REV_AT_EPOCH":23863,"BSTAR":-7.42004e-7,"MEAN_MOTION_DOT":-3.0e-6,"MEAN_MOTION_DDOT":0},{"OBJECT_NAME":"COSMOS 2251 DEB","OBJECT_ID":"1993-036KZ","EPOCH":"2026-03-09T13:28:08.575968","MEAN_MOTION":15.07827872,"ECCENTRICITY":0.00279097,"INCLINATION":73.9949,"RA_OF_ASC_NODE":118.7357,"ARG_OF_PERICENTER":226.7607,"MEAN_ANOMALY":259.798,"EPHEMERIS_TYPE":0,"CLASSIFICATION_TYPE":"U","NORAD_CAT_ID":34128,"ELEMENT_SET_NO":999,"REV_AT_EPOCH":90472,"BSTAR":0.0021198383,"MEAN_MOTION_DOT":0.0003287,"MEAN_MOTION_DDOT":0}]
